GSAT0101 (PRN E11)      
1 37846U 11060A   23036.12638161 -.00000077  00000+0  00000+0 0  9991
2 37846  57.0686  15.0179 0003581 340.7621  19.2172  1.70476156 70180
GSAT0102 (PRN E12)      
1 37847U 11060B   23037.49877241 -.00000073  00000+0  00000+0 0  9993
2 37847  57.0694  14.9805 0005118 322.1911 206.8044  1.70475476 70218
GSAT0103 (PRN E19)      
1 38857U 12055A   23036.16529135 -.00000016  00000+0  00000+0 0  9996
2 38857  55.2085 135.2993 0003260 246.5964 113.3695  1.70473655 64070
GSAT0104 (PRN E20)      
1 38858U 12055B   23036.13504828 -.00000016  00000+0  00000+0 0  9996
2 38858  55.2092 135.3017 0001747 221.8552 138.1313  1.70473831 64072
GSAT0201 (PRN E18)      
1 40128U 14050A   23035.51745334 -.00000089  00000+0  00000+0 0  9996
2 40128  50.1138 323.0310 1612466 132.4144 242.4161  1.85519599 55521
GSAT0202 (PRN E14)      
1 40129U 14050B   23036.85560361 -.00000081  00000+0  00000+0 0  9992
2 40129  50.1348 322.0444 1609875 133.2706 241.3525  1.85520267 57714
GSAT0203 (PRN E26)      
1 40544U 15017A   23037.07889502 -.00000074  00000+0  00000+0 0  9995
2 40544  56.8644  14.9934 0004724 278.7572  81.1813  1.70477192 48289
GSAT0204 (PRN E22)      
1 40545U 15017B   23036.74563522 -.00000075  00000+0  00000+0 0  9991
2 40545  56.8694  15.0160 0004181 267.0682  92.8762  1.70475707 11325
GSAT0205 (PRN E24)      
1 40889U 15045A   23036.51389523  .00000059  00000+0  00000+0 0  9996
2 40889  55.4790 255.5229 0006478  30.1952 329.9151  1.70473322 46083
GSAT0206 (PRN E30)      
1 40890U 15045B   23034.97485960  .00000058  00000+0  00000+0 0  9997
2 40890  55.4790 255.5610 0004535  30.6524 329.4513  1.70473433 46081
GSAT0209 (PRN E09)      
1 41174U 15079A   23035.73386741 -.00000019  00000+0  00000+0 0  9990
2 41174  55.2261 135.0164 0002965 302.9695  56.9996  1.70474894 43832
GSAT0208 (PRN E08)      
1 41175U 15079B   23034.78022467 -.00000025  00000+0  00000+0 0  9994
2 41175  55.2243 135.0411 0002180 303.8498  56.1207  1.70474860 44233
GSAT0211 (PRN E02)      
1 41549U 16030A   23036.07368906  .00000060  00000+0  00000+0 0  9990
2 41549  55.6244 255.4884 0004468   1.7528 358.3235  1.70473448 41734
GSAT0210 (PRN E01)      
1 41550U 16030B   23036.95198383  .00000060  00000+0  00000+0 0  9999
2 41550  55.6242 255.4654 0002479 346.3740  13.6905  1.70474944 41741
GSAT0207 (PRN E07)      
1 41859U 16069A   23036.02787269 -.00000017  00000+0  00000+0 0  9991
2 41859  54.8874 135.1322 0003327 283.7104  76.2518  1.70474957 38466
GSAT0212 (PRN E03)      
1 41860U 16069B   23035.29536255 -.00000022  00000+0  00000+0 0  9994
2 41860  54.8849 135.1497 0001695 317.0516  42.9292  1.70473636 38706
GSAT0213 (PRN E04)      
1 41861U 16069C   23036.83376528 -.00000012  00000+0  00000+0 0  9990
2 41861  54.8877 135.1127 0003499 257.1600 102.8064  1.70473683 38592
GSAT0214 (PRN E05)      
1 41862U 16069D   23036.98092419 -.00000011  00000+0  00000+0 0  9990
2 41862  54.8861 135.1029 0002591 256.2585 103.7194  1.70473796 38725
GSAT0215 (PRN E21)      
1 43055U 17079A   23035.71132871  .00000059  00000+0  00000+0 0  9996
2 43055  55.6015 255.3274 0001935 353.2775   6.7954  1.70474124 32049
GSAT0216 (PRN E25)      
1 43056U 17079B   23036.58996810  .00000060  00000+0  00000+0 0  9996
2 43056  55.6010 255.3028 0003147 323.7447  36.3064  1.70474287 32071
GSAT0217 (PRN E27)      
1 43057U 17079C   23036.22369109  .00000060  00000+0  00000+0 0  9993
2 43057  55.5994 255.3125 0003489 341.6076  18.4537  1.70474153 32052
GSAT0218 (PRN E31)      
1 43058U 17079D   23036.44370661  .00000060  00000+0  00000+0 0  9993
2 43058  55.5994 255.3038 0003145 311.2902  48.7558  1.70474194 32083
GSAT0221 (PRN E15)      
1 43564U 18060A   23036.92871504 -.00000074  00000+0  00000+0 0  9997
2 43564  57.2455  14.8724 0005532 289.1854  70.7464  1.70475810 28247
GSAT0222 (PRN E33)      
1 43565U 18060B   23037.14859487 -.00000074  00000+0  00000+0 0  9999
2 43565  57.2473  14.8674 0005234 295.8836  64.0539  1.70475802 28290
GSAT0219 (PRN E36)      
1 43566U 18060C   23036.19595805 -.00000076  00000+0  00000+0 0  9997
2 43566  57.2477  14.8950 0004936 297.2438  62.6983  1.70475828 28255
GSAT0220 (PRN E13)      
1 43567U 18060D   23037.00283826 -.00000074  00000+0  00000+0 0  9994
2 43567  57.2478  14.8738 0005121 292.1294  67.8078  1.70475868 28258
GSAT0223                
1 49809U 21116A   23036.85898565 -.00000075  00000+0  00000+0 0  9990
2 49809  57.2423  14.7747 0002376 259.0060 102.8153  1.70476047  7266
GSAT0224                
1 49810U 21116B   23037.56138705 -.00000072  00000+0  00000+0 0  9991
2 49810  57.2388  14.7539 0001914 274.4633 270.9118  1.70476000  7291
